
AEHF-4 (USA 288)
1 43651U 18079A   26170.25608484 -.00000282  00000+0  00000+0 0  9998
2 43651   1.4327   4.1870 0060360 356.0081 291.9653  1.00271965 28316

AEHF-5 (USA 292)
1 44481U 19051A   26170.05599995 -.00000264  00000+0  00000+0 0  9995
2 44481   1.4522 336.3962 0066268 359.9329  44.1886  1.00273244 25288

AMOS-17
1 44479U 19050A   26170.25474773  .00000103  00000+0  00000+0 0  9990
2 44479   0.0243 314.5556 0001872 170.9319 250.7085  1.00273856 25204

ARABSAT-6A
1 44186U 19021A   26170.25734774  .00000147  00000+0  00000+0 0  9991
2 44186   0.0508  13.2689 0001531 338.8164  38.5101  1.00274948 26179

AT&T T-16
1 44333U 19034A   26169.87471625 -.00000122  00000+0  00000+0 0  9992
2 44333   0.0226  66.9403 0000810 239.0528 175.1501  1.00271203 25659

BEIDOU-2 G8
1 44231U 19027A   26170.27998781 -.00000254  00000+0  00000+0 0  9990
2 44231   1.6642  74.4990 0010142 281.8932 156.4442  1.00270143 26102

BEIDOU-3 G1
1 43683U 18085A   26170.21172103 -.00000116  00000+0  00000+0 0  9996
2 43683   2.8741  97.3095 0008054 350.1297  56.1660  1.00270307 28087

BEIDOU-3 IGSO-1
1 44204U 19023A   26169.60920451 -.00000224  00000+0  00000+0 0  9997
2 44204  58.6970  37.6341 0025544 225.7171 340.8879  1.00291017  7221

BEIDOU-3 IGSO-2
1 44337U 19035A   26169.88675894 -.00000097  00000+0  00000+0 0  9993
2 44337  55.2463 158.8478 0039664 216.5160 330.6306  1.00265889 25689

COSMOS 2533
1 43867U 18107A   26168.69679124 -.00000043  00000+0  00000+0 0  9998
2 43867   0.0491  89.9947 0000945  42.6956  94.0812  1.00270501 27458

COSMOS 2539
1 44457U 19048A   26170.11110520  .00000075  00000+0  00000+0 0  9993
2 44457   0.0391  90.7372 0000747 357.0710 231.5178  1.00273944 25248

EDRS-C
1 44475U 19049A   26169.92307883 -.00000270  00000+0  00000+0 0  9999
2 44475   0.0121  43.2391 0000548  20.8725 317.8232  1.00265043 25221

ES'HAIL 2
1 43700U 18090A   26170.25648108  .00000138  00000+0  00000+0 0  9992
2 43700   0.0116  48.4976 0001741  75.7738 261.3229  1.00271825 27697

EUTELSAT 5 WEST B
1 44624U 19067A   26170.25032771 -.00000049  00000+0  00000+0 0  9998
2 44624   0.0628 349.5609 0003046  98.4337 264.6197  1.00269946 24458

EUTELSAT 7C
1 44334U 19034B   26169.53985329  .00000042  00000+0  00000+0 0  9997
2 44334   0.0727 176.5526 0003167 248.7431  42.8364  1.00271203  6845

GEO-KOMPSAT-2A
1 43823U 18100A   26169.92030550 -.00000350  00000+0  00000+0 0  9995
2 43823   0.0487 155.6876 0001856 291.5734 279.4528  1.00269167 27648

GSAT-11
1 43824U 18100B   26170.19473520 -.00000083  00000+0  00000+0 0  9998
2 43824   0.0298 239.6808 0007763 208.6394 323.2034  1.00271371 27494

GSAT-29
1 43698U 18089A   26170.19092184  .00000078  00000+0  00000+0 0  9999
2 43698   0.1011 264.4173 0003850 151.8464 334.9766  1.00276225 27807

GSAT-31
1 44035U 19007B   26170.18953517  .00000119  00000+0  00000+0 0  9997
2 44035   0.0599 257.3021 0001640 109.4817  16.7356  1.00275420 26986

GSAT-7A
1 43864U 18105A   26170.12115858  .00000020  00000+0  00000+0 0  9997
2 43864   0.0243  89.7661 0002005 335.3159 308.6377  1.00271575 27460

HELLAS-SAT 4 & SGS-1
1 44034U 19007A   26169.61749581  .00000146  00000+0  00000+0 0  9996
2 44034   0.0763 127.4708 0004778  14.7150  25.9943  1.00270754 27384

INTELSAT 39 (IS-39)
1 44476U 19049B   26170.19230852  .00000028  00000+0  00000+0 0  9992
2 44476   0.0190 337.6290 0001056 354.8240  66.1468  1.00268615 25147

MEV-1
1 44625U 19067B   26167.92963140 -.00000149  00000+0  00000+0 0  9993
2 44625   0.8740 268.9828 0002794 179.8034 307.2103  1.00269616 61744

NUSANTARA SATU
1 44048U 19009A   26169.99507472 -.00000241  00000+0  00000+0 0  9992
2 44048   0.0409 131.9512 0004331 345.3941 294.1131  1.00270044 26789

TIANLIAN 2-01
1 44076U 19017A   26170.19534186 -.00000113  00000+0  00000+0 0  9996
2 44076   0.5462  83.1148 0000796  32.7699 298.8688  1.00271070 26660

TIBA-1
1 44800U 19080A   26170.25838775  .00000149  00000+0  00000+0 0  9997
2 44800   0.0556  18.1631 0001924  80.6523 297.1643  1.00271998 24076

TJS-3
1 43874U 18110A   26168.80083983 -.00000223  00000+0  00000+0 0  9995
2 43874   2.5471  80.4839 0002166  82.2220 179.8966  1.00270373 27424

TJS-4
1 44637U 19070A   26170.14350216 -.00000173  00000+0  00000+0 0  9999
2 44637   0.0209  70.5663 0004954 322.3209   9.6231  1.00260520 24550

WGS 10 (USA 291)
1 44071U 19014A   26169.90687211  .00000041  00000+0  00000+0 0  9992
2 44071   0.0171  18.9820 0000384 260.8384  14.1022  1.00265376 26638

YAMAL 601
1 44307U 19031A   26170.18979517  .00000113  00000+0  00000+0 0  9998
2 44307   0.0185  32.6964 0002476  58.4358 293.6123  1.00273007 25942

ZHONGXING-2D
1 43920U 19001A   26170.27712780 -.00000343  00000+0  00000+0 0  9998
2 43920   0.0345 230.1195 0001365 104.7283 162.4352  1.00270345 54108

ZHONGXING-6C
1 44067U 19012A   26170.27721447 -.00000341  00000+0  00000+0 0  9991
2 44067   0.0795  72.6943 0014019 337.1511  87.8575  1.00272746 26761
