OBJECT_NAME,OBJECT_ID,EPOCH,MEAN_MOTION,ECCENTRICITY,INCLINATION,RA_OF_ASC_NODE,ARG_OF_PERICENTER,MEAN_ANOMALY,EPHEMERIS_TYPE,CLASSIFICATION_TYPE,NORAD_CAT_ID,ELEMENT_SET_NO,REV_AT_EPOCH,BSTAR,MEAN_MOTION_DOT,MEAN_MOTION_DDOT
AEHF-4 (USA 288),2018-079A,2026-06-19T06:08:45.730176,1.00271965,.006036,1.4327,4.1870,356.0081,291.9653,0,U,43651,999,2831,0,-.282E-5,0
BEIDOU-3 G1,2018-085A,2026-06-19T05:04:52.696992,1.00270307,.00080546,2.8741,97.3095,350.1297,56.1660,0,U,43683,999,2808,0,-.116E-5,0
GSAT-29,2018-089A,2026-06-19T04:34:55.646976,1.00276225,.00038508,0.1011,264.4173,151.8464,334.9766,0,U,43698,999,2780,0,.78E-6,0
ES'HAIL 2,2018-090A,2026-06-19T06:09:19.965312,1.00271825,.00017419,0.0116,48.4976,75.7738,261.3229,0,U,43700,999,2769,0,.138E-5,0
GEO-KOMPSAT-2A,2018-100A,2026-06-18T22:05:14.395200,1.00269167,.0001856,0.0487,155.6876,291.5734,279.4528,0,U,43823,999,2764,0,-.35E-5,0
GSAT-11,2018-100B,2026-06-19T04:40:25.121280,1.00271371,.00077634,0.0298,239.6808,208.6394,323.2034,0,U,43824,999,2749,0,-.83E-6,0
GSAT-7A,2018-105A,2026-06-19T02:54:28.101312,1.00271575,.00020052,0.0243,89.7661,335.3159,308.6377,0,U,43864,999,2746,0,.2E-6,0
COSMOS 2533,2018-107A,2026-06-17T16:43:22.763136,1.00270501,.00009457,0.0491,89.9947,42.6956,94.0812,0,U,43867,999,2745,0,-.43E-6,0
TJS-3,2018-110A,2026-06-17T19:13:12.561312,1.00270373,.0002166,2.5471,80.4839,82.2220,179.8966,0,U,43874,999,2742,0,-.223E-5,0
ZHONGXING-2D,2019-001A,2026-06-19T06:39:03.841920,1.00270345,.00013655,0.0345,230.1195,104.7283,162.4352,0,U,43920,999,5410,0,-.343E-5,0
HELLAS-SAT 4 & SGS-1,2019-007A,2026-06-18T14:49:11.637984,1.00270754,.00047788,0.0763,127.4708,14.7150,25.9943,0,U,44034,999,2738,0,.146E-5,0
GSAT-31,2019-007B,2026-06-19T04:32:55.838688,1.00275420,.000164,0.0599,257.3021,109.4817,16.7356,0,U,44035,999,2698,0,.119E-5,0
NUSANTARA SATU,2019-009A,2026-06-18T23:52:54.455808,1.00270044,.00043319,0.0409,131.9512,345.3941,294.1131,0,U,44048,999,2678,0,-.241E-5,0
ZHONGXING-6C,2019-012A,2026-06-19T06:39:11.330208,1.00272746,.0014019,0.0795,72.6943,337.1511,87.8575,0,U,44067,999,2676,0,-.341E-5,0
WGS 10 (USA 291),2019-014A,2026-06-18T21:45:53.750304,1.00265376,.0000384,0.0171,18.9820,260.8384,14.1022,0,U,44071,999,2663,0,.41E-6,0
TIANLIAN 2-01,2019-017A,2026-06-19T04:41:17.536704,1.00271070,.00007963,0.5462,83.1148,32.7699,298.8688,0,U,44076,999,2666,0,-.113E-5,0
ARABSAT-6A,2019-021A,2026-06-19T06:10:34.844736,1.00274948,.00015316,0.0508,13.2689,338.8164,38.5101,0,U,44186,999,2617,0,.147E-5,0
BEIDOU-3 IGSO-1,2019-023A,2026-06-18T14:37:15.269664,1.00291017,.0025544,58.6970,37.6341,225.7171,340.8879,0,U,44204,999,722,0,-.224E-5,0
BEIDOU-2 G8,2019-027A,2026-06-19T06:43:10.946784,1.00270143,.00101426,1.6642,74.4990,281.8932,156.4442,0,U,44231,999,2610,0,-.254E-5,0
YAMAL 601,2019-031A,2026-06-19T04:33:18.302688,1.00273007,.00024765,0.0185,32.6964,58.4358,293.6123,0,U,44307,999,2594,0,.113E-5,0
AT&T T-16,2019-034A,2026-06-18T20:59:35.484000,1.00271203,.000081,0.0226,66.9403,239.0528,175.1501,0,U,44333,999,2565,0,-.122E-5,0
EUTELSAT 7C,2019-034B,2026-06-18T12:57:23.324256,1.00271203,.0003167,0.0727,176.5526,248.7431,42.8364,0,U,44334,999,684,0,.42E-6,0
BEIDOU-3 IGSO-2,2019-035A,2026-06-18T21:16:55.972416,1.00265889,.00396642,55.2463,158.8478,216.5160,330.6306,0,U,44337,999,2568,0,-.97E-6,0
COSMOS 2539,2019-048A,2026-06-19T02:39:59.489280,1.00273944,.00007477,0.0391,90.7372,357.0710,231.5178,0,U,44457,999,2524,0,.75E-6,0
EDRS-C,2019-049A,2026-06-18T22:09:14.010912,1.00265043,.0000548,0.0121,43.2391,20.8725,317.8232,0,U,44475,999,2522,0,-.27E-5,0
INTELSAT 39 (IS-39),2019-049B,2026-06-19T04:36:55.456128,1.00268615,.00010568,0.0190,337.6290,354.8240,66.1468,0,U,44476,999,2514,0,.28E-6,0
AMOS-17,2019-050A,2026-06-19T06:06:50.203872,1.00273856,.00018727,0.0243,314.5556,170.9319,250.7085,0,U,44479,999,2520,0,.103E-5,0
AEHF-5 (USA 292),2019-051A,2026-06-19T01:20:38.395680,1.00273244,.0066268,1.4522,336.3962,359.9329,44.1886,0,U,44481,999,2528,0,-.264E-5,0
EUTELSAT 5 WEST B,2019-067A,2026-06-19T06:00:28.314144,1.00269946,.00030469,0.0628,349.5609,98.4337,264.6197,0,U,44624,999,2445,0,-.49E-6,0
MEV-1,2019-067B,2026-06-16T22:18:40.152960,1.00269616,.00027946,0.8740,268.9828,179.8034,307.2103,0,U,44625,999,6174,0,-.149E-5,0
TJS-4,2019-070A,2026-06-19T03:26:38.586624,1.00260520,.00049546,0.0209,70.5663,322.3209,9.6231,0,U,44637,999,2455,0,-.173E-5,0
TIBA-1,2019-080A,2026-06-19T06:12:04.701600,1.00271998,.00019249,0.0556,18.1631,80.6523,297.1643,0,U,44800,999,2407,0,.149E-5,0
